NORAD_CAT_ID,OBJECT_NAME,OBJECT_TYPE,EPOCH,MEAN_MOTION,ECCENTRICITY,INCLINATION,RA_OF_ASC_NODE,ARG_OF_PERICENTER,MEAN_ANOMALY,BSTAR,MEAN_MOTION_DOT,MEAN_MOTION_DDOT,TLE_LINE0,TLE_LINE1,TLE_LINE2,SEMIMAJOR_AXIS,PERIOD,APOGEE,PERIGEE,DECAYED
49745.0,STARLINK-3241,PAYLOAD,2022-04-15 22:00:00,15.0889234,0.0002044,53.2176,60.6995,48.3406,242.5329,-0.0028311,-0.00045129,0.0,0 STARLINK-3241,1 49745U 21115X   22105.91667824 -.00045129  00000-0 -28311-2 0  9992,2 49745  53.2176  60.6995 0002044  48.3406 242.5329 15.08892340  3588,6917.72,95.434,540.999,538.1709999999998,0.0
49745.0,STARLINK-3241,PAYLOAD,2022-04-16 06:00:00,15.08843963,0.0002144,53.2178,59.2048,40.3104,262.2012,-0.0029497,-0.00046934,0.0,0 STARLINK-3241,1 49745U 21115X   22106.25001157 -.00046934  00000-0 -29497-2 0  9992,2 49745  53.2178  59.2048 0002144  40.3104 262.2012 15.08843963 21755,6917.868,95.437,541.216,538.25,0.0
49745.0,STARLINK-3241,PAYLOAD,2022-04-16 14:00:01,15.08800894,0.0001974,53.2177,57.7071,38.9158,275.1769,-0.0008122,-0.00013177,0.0,0 STARLINK-3241,1 49745U 21115X   22106.58334491 -.00013177  00000-0 -81220-3 0  9994,2 49745  53.2177  57.7071 0001974  38.9158 275.1769 15.08800894  3595,6918.0,95.44,541.231,538.499,0.0
49745.0,STARLINK-3241,PAYLOAD,2022-04-16 22:00:01,15.08809732,0.0001955,53.2171,56.2106,42.6394,283.0512,0.0001565999999999,2.203e-05,0.0,0 STARLINK-3241,1 49745U 21115X   22106.91668981  .00002203  00000-0  15660-3 0  9996,2 49745  53.2171  56.2106 0001955  42.6394 283.0512 15.08809732 21858,6917.973000000001,95.439,541.19,538.485,0.0
49745.0,STARLINK-3241,PAYLOAD,2022-04-17 14:00:01,15.08820801,0.0002064,53.2165,53.2184,40.4957,308.2514,-0.00031418,-5.282e-05,0.0,0 STARLINK-3241,1 49745U 21115X   22107.58334491 -.00005282  00000-0 -31418-3 0  9997,2 49745  53.2165  53.2184 0002064  40.4957 308.2514 15.08820801  3567,6917.939,95.439,541.232,538.376,0.0
49745.0,STARLINK-3241,PAYLOAD,2022-04-17 22:00:00,15.08841172,0.0002058,53.2169,51.7221,43.8783,316.4357,-6.3662e-05,-1.301e-05,0.0,0 STARLINK-3241,1 49745U 21115X   22107.91667824 -.00001301  00000-0 -63662-4 0  9998,2 49745  53.2169  51.7221 0002058  43.8783 316.4357 15.08841172  3574,6917.877,95.437,541.1659999999998,538.318,0.0
49745.0,STARLINK-3241,PAYLOAD,2022-04-18 08:00:01,15.08827959,0.0002249,53.2167,49.8532,39.1632,65.646,0.0027634,0.00043952,0.0,0 STARLINK-3241,1 49745U 21115X   22108.33334491  .00043952  00000-0  27634-2 0  9999,2 49745  53.2167  49.8532 0002249  39.1632  65.6460 15.08827959 22068,6917.917,95.438,541.3380000000002,538.226,0.0
49745.0,STARLINK-3241,PAYLOAD,2022-04-18 14:00:01,15.08849235,0.0002101,53.2171,48.7294,43.3008,340.2084,0.00047537,7.287e-05,0.0,0 STARLINK-3241,1 49745U 21115X   22108.58334491  .00007287  00000-0  47537-3 0  9992,2 49745  53.2171  48.7294 0002101  43.3008 340.2084 15.08849235  3601,6917.852,95.437,541.1709999999998,538.264,0.0
49745.0,STARLINK-3241,PAYLOAD,2022-04-18 22:00:00,15.08886634,0.0002083,53.2174,47.2333,44.7781,350.334,-0.0022853,-0.00036522,0.0,0 STARLINK-3241,1 49745U 21115X   22108.91667824 -.00036522  00000-0 -22853-2 0  9997,2 49745  53.2174  47.2333 0002083  44.7781 350.3340 15.08886634 22156,6917.738,95.435,541.044,538.1619999999998,0.0
49745.0,STARLINK-3241,PAYLOAD,2022-04-19 14:00:01,15.08863264,0.0001985,53.2174,44.2403,41.9874,16.3768,-0.0014261,-0.00022928,0.0,0 STARLINK-3241,1 49745U 21115X   22109.58334491 -.00022928  00000-0 -14261-2 0  9991,2 49745  53.2174  44.2403 0001985  41.9874  16.3768 15.08863264 22251,6917.809,95.436,541.047,538.3009999999998,0.0
49745.0,STARLINK-3241,PAYLOAD,2022-04-20 14:00:01,15.08819121,0.0001771999999999,53.2171,39.7422,40.219,52.9519,0.00057359,8.847e-05,0.0,0 STARLINK-3241,1 49745U 21115X   22110.58334491  .00008847  00000-0  57359-3 0  9991,2 49745  53.2171  39.7422 0001772  40.2190  52.9519 15.08819121  3606,6917.944,95.439,541.035,538.5830000000002,0.0
49745.0,STARLINK-3241,PAYLOAD,2022-04-20 22:00:00,15.08850532,0.0001822,53.2171,38.2556,43.0527,61.6803,-0.00099716,-0.00016128,0.0,0 STARLINK-3241,1 49745U 21115X   22110.91667824 -.00016128  00000-0 -99716-3 0  9993,2 49745  53.2171  38.2556 0001822  43.0527  61.6803 15.08850532 22457,6917.848000000001,95.437,540.974,538.453,0.0
49745.0,STARLINK-3241,PAYLOAD,2022-04-21 14:00:01,15.088486800000002,0.0001734,53.2165,35.2623,42.1595,85.78200000000002,-0.00056928,-9.339e-05,0.0,0 STARLINK-3241,1 49745U 21115X   22111.58334491 -.00009339  00000-0 -56928-3 0  9992,2 49745  53.2165  35.2623 0001734  42.1595  85.7820 15.08848680  3613,6917.854,95.437,540.918,538.519,0.0
49745.0,STARLINK-3241,PAYLOAD,2022-04-21 22:00:00,15.0886196,0.0001763,53.2165,33.7665,43.0717,96.4737,-0.00077829,-0.00012661,0.0,0 STARLINK-3241,1 49745U 21115X   22111.91667824 -.00012661  00000-0 -77829-3 0  9993,2 49745  53.2165  33.7665 0001763  43.0717  96.4737 15.08861960  3599,6917.813,95.436,540.898,538.4590000000002,0.0
49745.0,STARLINK-3241,PAYLOAD,2022-04-22 14:00:01,15.08839775,0.0001769,53.216,30.773000000000003,43.955,118.8295,-0.0004507,-7.454e-05,0.0,0 STARLINK-3241,1 49745U 21115X   22112.58334491 -.00007454  00000-0 -45070-3 0  9995,2 49745  53.2160  30.7730 0001769  43.9550 118.8295 15.08839775  3603,6917.880999999999,95.438,540.97,538.5219999999998,0.0
49745.0,STARLINK-3241,PAYLOAD,2022-04-22 16:00:00,15.08829961,0.0001763,53.2158,30.3985,45.5997,210.0865,0.00059776,9.236e-05,0.0,0 STARLINK-3241,1 49745U 21115X   22112.66667824  .00009236  00000-0  59776-3 0  9999,2 49745  53.2158  30.3985 0001763  45.5997 210.0865 15.08829961 22723,6917.911,95.438,540.996,538.556,0.0
49745.0,STARLINK-3241,PAYLOAD,2022-04-23 14:00:01,15.08796256,0.0001875,53.216,26.2835,45.2157,152.3423,0.003162,0.00050335,0.0,0 STARLINK-3241,1 49745U 21115X   22113.58334491  .00050335  00000-0  31620-2 0  9995,2 49745  53.2160  26.2835 0001875  45.2157 152.3423 15.08796256 22855,6918.014,95.44,541.1759999999998,538.582,0.0
49745.0,STARLINK-3241,PAYLOAD,2022-04-24 06:00:00,15.08846355,0.000207,53.216,23.2925,41.8513,178.8638,0.00041747,6.363e-05,0.0,0 STARLINK-3241,1 49745U 21115X   22114.25001157  .00006363  00000-0  41747-3 0  9994,2 49745  53.2160  23.2925 0002070  41.8513 178.8638 15.08846355 22956,6917.861,95.437,541.158,538.294,0.0
49745.0,STARLINK-3241,PAYLOAD,2022-04-24 14:00:01,15.0882385,0.0001906,53.2163,21.7941,45.6775,186.6561,0.0016195,0.00025569,0.0,0 STARLINK-3241,1 49745U 21115X   22114.58334491  .00025569  00000-0  16195-2 0  9997,2 49745  53.2163  21.7941 0001906  45.6775 186.6561 15.08823850  3595,6917.93,95.439,541.113,538.476,0.0
49745.0,STARLINK-3241,PAYLOAD,2022-04-24 22:00:00,15.08833661,0.0002089,53.2165,20.2988,46.1583,197.7599,-0.0010056,-0.00016254,0.0,0 STARLINK-3241,1 49745U 21115X   22114.91667824 -.00016254  00000-0 -10056-2 0  9996,2 49745  53.2165  20.2988 0002089  46.1583 197.7599 15.08833661 23067,6917.9,95.438,541.21,538.32,0.0
49745.0,STARLINK-3241,PAYLOAD,2022-04-25 14:00:01,15.08795131,0.0001956,53.2169,17.3049,46.4463,220.6395,0.0037061,0.00059117,0.0,0 STARLINK-3241,1 49745U 21115X   22115.58334491  .00059117  00000-0  37061-2 0  9999,2 49745  53.2169  17.3049 0001956  46.4463 220.6395 15.08795131  3593,6918.018,95.44,541.236,538.529,0.0
49745.0,STARLINK-3241,PAYLOAD,2022-04-25 22:00:00,15.08846186,0.0002076,53.2172,15.8097,45.7548,232.8998,-0.00039363,-6.549e-05,0.0,0 STARLINK-3241,1 49745U 21115X   22115.91667824 -.00006549  00000-0 -39363-3 0  9996,2 49745  53.2172  15.8097 0002076  45.7548 232.8998 15.08846186 23215,6917.861,95.437,541.163,538.29,0.0
49745.0,STARLINK-3241,PAYLOAD,2022-04-26 14:00:01,15.08823662,0.0001918,53.2173,12.8158,46.9423,254.9964,0.0019758,0.00031283,0.0,0 STARLINK-3241,1 49745U 21115X   22116.58335648  .00031283  00000-0  19758-2 0  9992,2 49745  53.2173  12.8158 0001918  46.9423 254.9964 15.08823662  3591,6917.93,95.439,541.122,538.4680000000002,0.0
49745.0,STARLINK-3241,PAYLOAD,2022-04-26 22:00:00,15.08833131,0.0002101,53.2175,11.3208,45.8421,267.6217,-0.00042051,-6.973e-05,0.0,0 STARLINK-3241,1 49745U 21115X   22116.91667824 -.00006973  00000-0 -42051-3 0  9996,2 49745  53.2175  11.3208 0002101  45.8421 267.6217 15.08833131  3565,6917.901,95.438,541.22,538.313,0.0
49745.0,STARLINK-3241,PAYLOAD,2022-04-27 06:00:00,15.08850929,0.0002099,53.2172,9.8248,42.4743,282.5681,-0.0021932,-0.00035035,0.0,0 STARLINK-3241,1 49745U 21115X   22117.25001157 -.00035035  00000-0 -21932-2 0  9990,2 49745  53.2172   9.8248 0002099  42.4743 282.5681 15.08850929 23415,6917.847,95.437,541.164,538.26,0.0
49745.0,STARLINK-3241,PAYLOAD,2022-04-27 14:00:01,15.08796966,0.0001877,53.2174,8.3269,47.7934,288.9122,0.0040582,0.00064816,0.0,0 STARLINK-3241,1 49745U 21115X   22117.58335648  .00064816  00000-0  40582-2 0  9990,2 49745  53.2174   8.3269 0001877  47.7934 288.9122 15.08796966  3594,6918.012,95.44,541.175,538.578,0.0
49745.0,STARLINK-3241,PAYLOAD,2022-04-27 22:00:00,15.08850394,0.0001998,53.2175,6.8321,45.0328,303.1849,-0.00053447,-8.787e-05,0.0,0 STARLINK-3241,1 49745U 21115X   22117.91667824 -.00008787  00000-0 -53447-3 0  9993,2 49745  53.2175   6.8321 0001998  45.0328 303.1849 15.08850394 23515,6917.849,95.437,541.096,538.331,0.0
49745.0,STARLINK-3241,PAYLOAD,2022-04-28 14:00:01,15.0883891,0.0001806,53.217,3.8381,47.0108,324.4393,0.0013661,0.0002152,0.0,0 STARLINK-3241,1 49745U 21115X   22118.58334491  .00021520  00000-0  13661-2 0  9999,2 49745  53.2170   3.8381 0001806  47.0108 324.4393 15.08838910  3573,6917.884,95.438,540.998,538.499,0.0
49745.0,STARLINK-3241,PAYLOAD,2022-04-28 22:00:01,15.08862426,0.0001965,53.2169,2.3433,44.8299,338.2884,-0.0017369,-0.00027842,0.0,0 STARLINK-3241,1 49745U 21115X   22118.91668981 -.00027842  00000-0 -17369-2 0  9994,2 49745  53.2169   2.3433 0001965  44.8299 338.2884 15.08862426 23664,6917.812,95.436,541.036,538.317,0.0
